{"type": "FeatureCollection", "features": [ {"type": "Feature", "properties": {"norad_id": 66879, "name": "STARLINK-35749", "group": "last-30-days", "lat": -49.98268881237485, "lon": -100.76512097027761, "alt_km": 376.33708675220896, "timestamp": "2025-12-24T07:45:04.933471+00:00", "meta": {"OBJECT_NAME": "STARLINK-35749", "OBJECT_ID": "2025-283B", "EPOCH": "2025-12-23T22:00:01.999584", "MEAN_MOTION": 15.67565844, "ECCENTRICITY": 0.00013392, "INCLINATION": 53.1588, "RA_OF_ASC_NODE": 17.9789, "ARG_OF_PERICENTER": 81.6555, "MEAN_ANOMALY": 38.6608, "EPHEMERIS_TYPE": 0, "CLASSIFICATION_TYPE": "U", "NORAD_CAT_ID": 66879, "ELEMENT_SET_NO": 999, "REV_AT_EPOCH": 422, "BSTAR": -0.019517144, "MEAN_MOTION_DOT": -0.01918248, "MEAN_MOTION_DDOT": 0}, "tle": {"line1": "1 66879U 25283B   25357.91668981 -.01918248  00000+0 -19517-1 0  9994", "line2": "2 66879  53.1588  17.9789 0001339  81.6555  38.6608 15.67565844  4225"}}, "geometry": {"type": "Point", "coordinates": [-100.76512097027761, -49.98268881237485]}}, {"type": "Feature", "properties": {"norad_id": 66880, "name": "STARLINK-35844", "group": "last-30-days", "lat": -49.261580651460086, "lon": -103.49479279047402, "alt_km": 376.3100039876708, "timestamp": "2025-12-24T07:45:04.933484+00:00", "meta": {"OBJECT_NAME": "STARLINK-35844", "OBJECT_ID": "2025-283C", "EPOCH": "2025-12-23T22:00:01.999584", "MEAN_MOTION": 15.67562614, "ECCENTRICITY": 0.00013598, "INCLINATION": 53.1588, "RA_OF_ASC_NODE": 17.9833, "ARG_OF_PERICENTER": 84.6081, "MEAN_ANOMALY": 33.793, "EPHEMERIS_TYPE": 0, "CLASSIFICATION_TYPE": "U", "NORAD_CAT_ID": 66880, "ELEMENT_SET_NO": 999, "REV_AT_EPOCH": 422, "BSTAR": -0.019473272, "MEAN_MOTION_DOT": -0.0191422, "MEAN_MOTION_DDOT": 0}, "tle": {"line1": "1 66880U 25283C   25357.91668981 -.01914220  00000+0 -19473-1 0  9993", "line2": "2 66880  53.1588  17.9833 0001359  84.6081  33.7930 15.67562614  4222"}}, "geometry": {"type": "Point", "coordinates": [-103.49479279047402, -49.261580651460086]}}, {"type": "Feature", "properties": {"norad_id": 66881, "name": "STARLINK-35860", "group": "last-30-days", "lat": -50.63798360985787, "lon": -97.9546988822096, "alt_km": 376.42408009695737, "timestamp": "2025-12-24T07:45:04.933494+00:00", "meta": {"OBJECT_NAME": "STARLINK-35860", "OBJECT_ID": "2025-283D", "EPOCH": "2025-12-23T22:00:01.999584", "MEAN_MOTION": 15.67561751, "ECCENTRICITY": 0.00014292, "INCLINATION": 53.1588, "RA_OF_ASC_NODE": 17.9744, "ARG_OF_PERICENTER": 82.763, "MEAN_ANOMALY": 39.4738, "EPHEMERIS_TYPE": 0, "CLASSIFICATION_TYPE": "U", "NORAD_CAT_ID": 66881, "ELEMENT_SET_NO": 999, "REV_AT_EPOCH": 422, "BSTAR": -0.01948219, "MEAN_MOTION_DOT": -0.01914986, "MEAN_MOTION_DDOT": 0}, "tle": {"line1": "1 66881U 25283D   25357.91668981 -.01914986  00000+0 -19482-1 0  9993", "line2": "2 66881  53.1588  17.9744 0001429  82.7630  39.4738 15.67561751  4221"}}, "geometry": {"type": "Point", "coordinates": [-97.9546988822096, -50.63798360985787]}}, {"type": "Feature", "properties": {"norad_id": 66882, "name": "STARLINK-35912", "group": "last-30-days", "lat": -51.22357780462422, "lon": -95.06843341981998, "alt_km": 376.30811789620384, "timestamp": "2025-12-24T07:45:04.933507+00:00", "meta": {"OBJECT_NAME": "STARLINK-35912", "OBJECT_ID": "2025-283E", "EPOCH": "2025-12-23T22:00:01.999584", "MEAN_MOTION": 15.67563918, "ECCENTRICITY": 0.00012342, "INCLINATION": 53.1589, "RA_OF_ASC_NODE": 17.9712, "ARG_OF_PERICENTER": 82.2916, "MEAN_ANOMALY": 41.8601, "EPHEMERIS_TYPE": 0, "CLASSIFICATION_TYPE": "U", "NORAD_CAT_ID": 66882, "ELEMENT_SET_NO": 999, "REV_AT_EPOCH": 422, "BSTAR": -0.019491717, "MEAN_MOTION_DOT": -0.01915825, "MEAN_MOTION_DDOT": 0}, "tle": {"line1": "1 66882U 25283E   25357.91668981 -.01915825  00000+0 -19492-1 0  9998", "line2": "2 66882  53.1589  17.9712 0001234  82.2916  41.8601 15.67563918  4227"}}, "geometry": {"type": "Point", "coordinates": [-95.06843341981998, -51.22357780462422]}}, {"type": "Feature", "properties": {"norad_id": 66883, "name": "STARLINK-35947", "group": "last-30-days", "lat": -51.73616705072874, "lon": -92.1128148262939, "alt_km": 376.30945446118676, "timestamp": "2025-12-24T07:45:04.933520+00:00", "meta": {"OBJECT_NAME": "STARLINK-35947", "OBJECT_ID": "2025-283F", "EPOCH": "2025-12-23T22:00:01.999584", "MEAN_MOTION": 15.67563919, "ECCENTRICITY": 0.00012109, "INCLINATION": 53.1589, "RA_OF_ASC_NODE": 17.9676, "ARG_OF_PERICENTER": 82.4756, "MEAN_ANOMALY": 43.5931, "EPHEMERIS_TYPE": 0, "CLASSIFICATION_TYPE": "U", "NORAD_CAT_ID": 66883, "ELEMENT_SET_NO": 999, "REV_AT_EPOCH": 427, "BSTAR": -0.019494238, "MEAN_MOTION_DOT": -0.01916028, "MEAN_MOTION_DDOT": 0}, "tle": {"line1": "1 66883U 25283F   25357.91668981 -.01916028  00000+0 -19494-1 0  9997", "line2": "2 66883  53.1589  17.9676 0001210  82.4756  43.5931 15.67563919  4276"}}, "geometry": {"type": "Point", "coordinates": [-92.1128148262939, -51.73616705072874]}}, {"type": "Feature", "properties": {"norad_id": 66884, "name": "STARLINK-36057", "group": "last-30-days", "lat": -52.53087339747069, "lon": -86.02236565841703, "alt_km": 376.36619931849054, "timestamp": "2025-12-24T07:45:04.933530+00:00", "meta": {"OBJECT_NAME": "STARLINK-36057", "OBJECT_ID": "2025-283G", "EPOCH": "2025-12-23T22:00:01.999584", "MEAN_MOTION": 15.67563978, "ECCENTRICITY": 0.0001257, "INCLINATION": 53.1589, "RA_OF_ASC_NODE": 17.959, "ARG_OF_PERICENTER": 84.5386, "MEAN_ANOMALY": 45.3637, "EPHEMERIS_TYPE": 0, "CLASSIFICATION_TYPE": "U", "NORAD_CAT_ID": 66884, "ELEMENT_SET_NO": 999, "REV_AT_EPOCH": 422, "BSTAR": -0.019492905, "MEAN_MOTION_DOT": -0.01915949, "MEAN_MOTION_DDOT": 0}, "tle": {"line1": "1 66884U 25283G   25357.91668981 -.01915949  00000+0 -19493-1 0  9998", "line2": "2 66884  53.1589  17.9590 0001257  84.5386  45.3637 15.67563978  4228"}}, "geometry": {"type": "Point", "coordinates": [-86.02236565841703, -52.53087339747069]}}, {"type": "Feature", "properties": {"norad_id": 66885, "name": "STARLINK-35954", "group": "last-30-days", "lat": -52.17263041482758, "lon": -89.09626404195718, "alt_km": 376.4083931003879, "timestamp": "2025-12-24T07:45:04.933540+00:00", "meta": {"OBJECT_NAME": "STARLINK-35954", "OBJECT_ID": "2025-283H", "EPOCH": "2025-12-23T22:00:01.999584", "MEAN_MOTION": 15.67562291, "ECCENTRICITY": 0.00013367, "INCLINATION": 53.1588, "RA_OF_ASC_NODE": 17.9628, "ARG_OF_PERICENTER": 82.6869, "MEAN_ANOMALY": 45.2985, "EPHEMERIS_TYPE": 0, "CLASSIFICATION_TYPE": "U", "NORAD_CAT_ID": 66885, "ELEMENT_SET_NO": 999, "REV_AT_EPOCH": 422, "BSTAR": -0.01946271, "MEAN_MOTION_DOT": -0.01913261, "MEAN_MOTION_DDOT": 0}, "tle": {"line1": "1 66885U 25283H   25357.91668981 -.01913261  00000+0 -19463-1 0  9991", "line2": "2 66885  53.1588  17.9628 0001336  82.6869  45.2985 15.67562291  4225"}}, "geometry": {"type": "Point", "coordinates": [-89.09626404195718, -52.17263041482758]}}, {"type": "Feature", "properties": {"norad_id": 66886, "name": "STARLINK-35900", "group": "last-30-days", "lat": -52.80794390683524, "lon": -82.90212863151136, "alt_km": 376.3218270829966, "timestamp": "2025-12-24T07:45:04.933550+00:00", "meta": {"OBJECT_NAME": "STARLINK-35900", "OBJECT_ID": "2025-283J", "EPOCH": "2025-12-23T22:00:01.999584", "MEAN_MOTION": 15.67564522, "ECCENTRICITY": 0.00011984, "INCLINATION": 53.1587, "RA_OF_ASC_NODE": 17.9545, "ARG_OF_PERICENTER": 94.9702, "MEAN_ANOMALY": 36.8487, "EPHEMERIS_TYPE": 0, "CLASSIFICATION_TYPE": "U", "NORAD_CAT_ID": 66886, "ELEMENT_SET_NO": 999, "REV_AT_EPOCH": 422, "BSTAR": -0.01950147, "MEAN_MOTION_DOT": -0.01916691, "MEAN_MOTION_DDOT": 0}, "tle": {"line1": "1 66886U 25283J   25357.91668981 -.01916691  00000+0 -19501-1 0  9995", "line2": "2 66886  53.1587  17.9545 0001198  94.9702  36.8487 15.67564522  4223"}}, "geometry": {"type": "Point", "coordinates": [-82.90212863151136, -52.80794390683524]}}, {"type": "Feature", "properties": {"norad_id": 66887, "name": "STARLINK-35925", "group": "last-30-days", "lat": -53.00201738616749, "lon": -79.75707651856045, "alt_km": 376.46496310074235, "timestamp": "2025-12-24T07:45:04.933560+00:00", "meta": {"OBJECT_NAME": "STARLINK-35925", "OBJECT_ID": "2025-283K", "EPOCH": "2025-12-23T22:00:01.999584", "MEAN_MOTION": 15.67560278, "ECCENTRICITY": 0.00013849, "INCLINATION": 53.159, "RA_OF_ASC_NODE": 17.9508, "ARG_OF_PERICENTER": 82.2599, "MEAN_ANOMALY": 51.477, "EPHEMERIS_TYPE": 0, "CLASSIFICATION_TYPE": "U", "NORAD_CAT_ID": 66887, "ELEMENT_SET_NO": 999, "REV_AT_EPOCH": 422, "BSTAR": -0.019438762, "MEAN_MOTION_DOT": -0.0191107, "MEAN_MOTION_DDOT": 0}, "tle": {"line1": "1 66887U 25283K   25357.91668981 -.01911070  00000+0 -19439-1 0  9992", "line2": "2 66887  53.1590  17.9508 0001384  82.2599  51.4770 15.67560278  4220"}}, "geometry": {"type": "Point", "coordinates": [-79.75707651856045, -53.00201738616749]}}, {"type": "Feature", "properties": {"norad_id": 66888, "name": "STARLINK-35919", "group": "last-30-days", "lat": -53.11211528931798, "lon": -76.58376956266687, "alt_km": 376.4092031060527, "timestamp": "2025-12-24T07:45:04.933570+00:00", "meta": {"OBJECT_NAME": "STARLINK-35919", "OBJECT_ID": "2025-283L", "EPOCH": "2025-12-23T22:00:01.999584", "MEAN_MOTION": 15.67562576, "ECCENTRICITY": 0.0001303, "INCLINATION": 53.159, "RA_OF_ASC_NODE": 17.9466, "ARG_OF_PERICENTER": 81.5638, "MEAN_ANOMALY": 54.0886, "EPHEMERIS_TYPE": 0, "CLASSIFICATION_TYPE": "U", "NORAD_CAT_ID": 66888, "ELEMENT_SET_NO": 999, "REV_AT_EPOCH": 422, "BSTAR": -0.019465062, "MEAN_MOTION_DOT": -0.01913461, "MEAN_MOTION_DDOT": 0}, "tle": {"line1": "1 66888U 25283L   25357.91668981 -.01913461  00000+0 -19465-1 0  9998", "line2": "2 66888  53.1590  17.9466 0001303  81.5638  54.0886 15.67562576  4221"}}, "geometry": {"type": "Point", "coordinates": [-76.58376956266687, -53.11211528931798]}}]}